PANDORA
1 67395U 80229J   26087.62741898  .00000000  00000-0  37770-3 0    09
2 67395  97.8039  87.5476 0006242  47.4237  45.8823 14.87936705    06
